{
  "type": "FeatureCollection",
  "features": [
    {
      "type": "Feature",
      "properties": {
        "norad_id": 37238,
        "name": "INTELSAT 17 (IS-17)",
        "group": "intelsat",
        "lat": 0.0003931199844676049,
        "lon": 47.453285864544576,
        "alt_km": 35791.699996801624,
        "timestamp": "2025-12-20T16:47:35.958904+00:00",
        "meta_object_name": "INTELSAT 17 (IS-17)",
        "meta_object_id": "2010-065B",
        "meta_epoch": "2025-12-20T10:07:11.485344",
        "meta_mean_motion": 1.00270848,
        "meta_eccentricity": 0.0002784,
        "meta_inclination": 0.0043,
        "meta_ra_of_asc_node": 96.3175,
        "meta_arg_of_pericenter": 194.2403,
        "meta_mean_anomaly": 16.5012,
        "meta_ephemeris_type": 0,
        "meta_classification_type": "U",
        "meta_norad_cat_id": 37238,
        "meta_element_set_no": 999,
        "meta_rev_at_epoch": 5145,
        "meta_bstar": 0,
        "meta_mean_motion_dot": 2.2e-07,
        "meta_mean_motion_ddot": 0,
        "tle_line1": "1 37238U 10065B   25354.42166071  .00000022  00000+0  00000+0 0  9993",
        "tle_line2": "2 37238   0.0043  96.3175 0002784 194.2403  16.5012  1.00270848 51457"
      },
      "geometry": {
        "type": "Point",
        "coordinates": [
          47.453285864544576,
          0.0003931199844676049
        ]
      }
    },
    {
      "type": "Feature",
      "properties": {
        "norad_id": 37392,
        "name": "INTELSAT 28 (IS-28)",
        "group": "intelsat",
        "lat": -0.9676005234770816,
        "lon": -50.255946766669005,
        "alt_km": 35774.289528735404,
        "timestamp": "2025-12-20T16:47:35.958929+00:00",
        "meta_object_name": "INTELSAT 28 (IS-28)",
        "meta_object_id": "2011-016A",
        "meta_epoch": "2025-12-20T06:13:56.324352",
        "meta_mean_motion": 1.00269977,
        "meta_eccentricity": 0.0003683,
        "meta_inclination": 1.3429,
        "meta_ra_of_asc_node": 84.976,
        "meta_arg_of_pericenter": 187.7654,
        "meta_mean_anomaly": 238.1459,
        "meta_ephemeris_type": 0,
        "meta_classification_type": "U",
        "meta_norad_cat_id": 37392,
        "meta_element_set_no": 999,
        "meta_rev_at_epoch": 5149,
        "meta_bstar": 0,
        "meta_mean_motion_dot": -2.02e-06,
        "meta_mean_motion_ddot": 0,
        "tle_line1": "1 37392U 11016A   25354.25967968 -.00000202  00000+0  00000+0 0  9997",
        "tle_line2": "2 37392   1.3429  84.9760 0003683 187.7654 238.1459  1.00269977 51499"
      },
      "geometry": {
        "type": "Point",
        "coordinates": [
          -50.255946766669005,
          -0.9676005234770816
        ]
      }
    },
    {
      "type": "Feature",
      "properties": {
        "norad_id": 37834,
        "name": "INTELSAT 18 (IS-18)",
        "group": "intelsat",
        "lat": -0.020019067208617614,
        "lon": 161.40481194382562,
        "alt_km": 35789.9039769503,
        "timestamp": "2025-12-20T16:47:35.958943+00:00",
        "meta_object_name": "INTELSAT 18 (IS-18)",
        "meta_object_id": "2011-056A",
        "meta_epoch": "2025-12-20T08:45:38.947104",
        "meta_mean_motion": 1.0027236,
        "meta_eccentricity": 0.0001664,
        "meta_inclination": 0.0337,
        "meta_ra_of_asc_node": 280.0178,
        "meta_arg_of_pericenter": 6.1929,
        "meta_mean_anomaly": 114.4011,
        "meta_ephemeris_type": 0,
        "meta_classification_type": "U",
        "meta_norad_cat_id": 37834,
        "meta_element_set_no": 999,
        "meta_rev_at_epoch": 5201,
        "meta_bstar": 0,
        "meta_mean_motion_dot": 7.7e-07,
        "meta_mean_motion_ddot": 0,
        "tle_line1": "1 37834U 11056A   25354.36503411  .00000077  00000+0  00000+0 0  9992",
        "tle_line2": "2 37834   0.0337 280.0178 0001664   6.1929 114.4011  1.00272360 52011"
      },
      "geometry": {
        "type": "Point",
        "coordinates": [
          161.40481194382562,
          -0.020019067208617614
        ]
      }
    },
    {
      "type": "Feature",
      "properties": {
        "norad_id": 38098,
        "name": "INTELSAT 22 (IS-22)",
        "group": "intelsat",
        "lat": 0.018249097559767495,
        "lon": 53.52761344193894,
        "alt_km": 35791.927882424636,
        "timestamp": "2025-12-20T16:47:35.958956+00:00",
        "meta_object_name": "INTELSAT 22 (IS-22)",
        "meta_object_id": "2012-011A",
        "meta_epoch": "2025-12-20T10:08:56.317056",
        "meta_mean_motion": 1.00270562,
        "meta_eccentricity": 0.0001806,
        "meta_inclination": 0.0147,
        "meta_ra_of_asc_node": 41.4963,
        "meta_arg_of_pericenter": 236.1011,
        "meta_mean_anomaly": 35.9883,
        "meta_ephemeris_type": 0,
        "meta_classification_type": "U",
        "meta_norad_cat_id": 38098,
        "meta_element_set_no": 999,
        "meta_rev_at_epoch": 539,
        "meta_bstar": 0,
        "meta_mean_motion_dot": -3.5e-07,
        "meta_mean_motion_ddot": 0,
        "tle_line1": "1 38098U 12011A   25354.42287404 -.00000035  00000+0  00000+0 0  9990",
        "tle_line2": "2 38098   0.0147  41.4963 0001806 236.1011  35.9883  1.00270562  5394"
      },
      "geometry": {
        "type": "Point",
        "coordinates": [
          53.52761344193894,
          0.018249097559767495
        ]
      }
    },
    {
      "type": "Feature",
      "properties": {
        "norad_id": 38356,
        "name": "INTELSAT 19 (IS-19)",
        "group": "intelsat",
        "lat": 0.02175480648144193,
        "lon": 147.39201375967752,
        "alt_km": 35791.76265722534,
        "timestamp": "2025-12-20T16:47:35.958968+00:00",
        "meta_object_name": "INTELSAT 19 (IS-19)",
        "meta_object_id": "2012-030A",
        "meta_epoch": "2025-12-20T11:32:38.876928",
        "meta_mean_motion": 1.00271305,
        "meta_eccentricity": 0.0002743,
        "meta_inclination": 0.0116,
        "meta_ra_of_asc_node": 4.2995,
        "meta_arg_of_pericenter": 261.5808,
        "meta_mean_anomaly": 162.5958,
        "meta_ephemeris_type": 0,
        "meta_classification_type": "U",
        "meta_norad_cat_id": 38356,
        "meta_element_set_no": 999,
        "meta_rev_at_epoch": 4865,
        "meta_bstar": 0,
        "meta_mean_motion_dot": -3.3e-07,
        "meta_mean_motion_ddot": 0,
        "tle_line1": "1 38356U 12030A   25354.48100552 -.00000033  00000+0  00000+0 0  9990",
        "tle_line2": "2 38356   0.0116   4.2995 0002743 261.5808 162.5958  1.00271305 48658"
      },
      "geometry": {
        "type": "Point",
        "coordinates": [
          147.39201375967752,
          0.02175480648144193
        ]
      }
    },
    {
      "type": "Feature",
      "properties": {
        "norad_id": 38740,
        "name": "INTELSAT 20 (IS-20)",
        "group": "intelsat",
        "lat": 0.0038896539657136994,
        "lon": 49.88094646635761,
        "alt_km": 35796.05068551633,
        "timestamp": "2025-12-20T16:47:35.958980+00:00",
        "meta_object_name": "INTELSAT 20 (IS-20)",
        "meta_object_id": "2012-043A",
        "meta_epoch": "2025-12-20T10:07:56.413344",
        "meta_mean_motion": 1.00270417,
        "meta_eccentricity": 0.0003382,
        "meta_inclination": 0.0114,
        "meta_ra_of_asc_node": 99.7077,
        "meta_arg_of_pericenter": 82.6812,
        "meta_mean_anomaly": 127.3428,
        "meta_ephemeris_type": 0,
        "meta_classification_type": "U",
        "meta_norad_cat_id": 38740,
        "meta_element_set_no": 999,
        "meta_rev_at_epoch": 4895,
        "meta_bstar": 0,
        "meta_mean_motion_dot": 0,
        "meta_mean_motion_ddot": 0,
        "tle_line1": "1 38740U 12043A   25354.42218071  .00000000  00000+0  00000+0 0  9994",
        "tle_line2": "2 38740   0.0114  99.7077 0003382  82.6812 127.3428  1.00270417 48957"
      },
      "geometry": {
        "type": "Point",
        "coordinates": [
          49.88094646635761,
          0.0038896539657136994
        ]
      }
    },
    {
      "type": "Feature",
      "properties": {
        "norad_id": 38749,
        "name": "INTELSAT 21 (IS-21)",
        "group": "intelsat",
        "lat": -0.020086354500477115,
        "lon": -76.57188634785123,
        "alt_km": 35780.092783025066,
        "timestamp": "2025-12-20T16:47:35.958992+00:00",
        "meta_object_name": "INTELSAT 21 (IS-21)",
        "meta_object_id": "2012-045A",
        "meta_epoch": "2025-12-20T07:07:38.476704",
        "meta_mean_motion": 1.00272501,
        "meta_eccentricity": 0.0001506,
        "meta_inclination": 0.0258,
        "meta_ra_of_asc_node": 288.9022,
        "meta_arg_of_pericenter": 330.5878,
        "meta_mean_anomaly": 238.5531,
        "meta_ephemeris_type": 0,
        "meta_classification_type": "U",
        "meta_norad_cat_id": 38749,
        "meta_element_set_no": 999,
        "meta_rev_at_epoch": 4873,
        "meta_bstar": 0,
        "meta_mean_motion_dot": -2.61e-06,
        "meta_mean_motion_ddot": 0,
        "tle_line1": "1 38749U 12045A   25354.29697311 -.00000261  00000+0  00000+0 0  9998",
        "tle_line2": "2 38749   0.0258 288.9022 0001506 330.5878 238.5531  1.00272501 48732"
      },
      "geometry": {
        "type": "Point",
        "coordinates": [
          -76.57188634785123,
          -0.020086354500477115
        ]
      }
    }
  ]
}